BEIDOU-2 IGSO-1 (C06)   
1 36828U 10036A   25209.76889247 -.00000112  00000+0  00000+0 0  9999
2 36828  54.2807 165.8879 0049027 217.9168 306.9199  1.00265089 54855
BEIDOU-2 G4 (C04)       
1 37210U 10057A   25214.72120059 -.00000105  00000+0  00000+0 0  9991
2 37210   2.8522  70.3779 0005689 166.3000 134.4902  1.00273680 54099
BEIDOU-2 IGSO-2 (C07)   
1 37256U 10068A   25206.61974723 -.00000185  00000+0  00000+0 0  9995
2 37256  48.1347 275.8768 0048284 214.4393 144.2821  1.00277315 53519
BEIDOU-2 IGSO-3 (C08)   
1 37384U 11013A   25209.88898712 -.00000166  00000+0  00000+0 0  9992
2 37384  61.9454  43.2091 0032068 175.9775 153.2448  1.00256542 52419
BEIDOU-2 IGSO-4 (C09)   
1 37763U 11038A   25213.85137300 -.00000035  00000+0  00000+0 0  9996
2 37763  54.5831 168.5364 0144684 231.1652 312.4292  1.00268809 51445
BEIDOU-2 IGSO-5 (C10)   
1 37948U 11073A   25213.63788997 -.00000154  00000+0  00000+0 0  9992
2 37948  48.2595 275.4965 0109869 220.8571 139.9591  1.00278091 49932
BEIDOU-2 G5 (C05)       
1 38091U 12008A   25214.77247282  .00000064  00000+0  00000+0 0  9993
2 38091   2.7757  71.1765 0005826 255.3219 321.8722  1.00274329 49282
BEIDOU-2 M3 (C11)       
1 38250U 12018A   25214.77322677 -.00000094  00000+0  00000+0 0  9997
2 38250  56.0280 315.5923 0022384 265.8732  93.9040  1.86233788 90360
BEIDOU-2 M4 (C12)       
1 38251U 12018B   25215.24268905 -.00000090  00000+0  00000+0 0  9990
2 38251  55.9300 314.8163 0013477 265.0316  94.8490  1.86232140 90374
BEIDOU-2 M6 (C14)       
1 38775U 12050B   25214.95328784 -.00000048  00000+0  00000+0 0  9999
2 38775  56.2600  73.4386 0012377 355.8485   4.2141  1.86231196 87734
BEIDOU-2 G6 (C02)       
1 38953U 12059A   25215.49131833 -.00000169  00000+0  00000+0 0  9997
2 38953   3.6099  76.8690 0007953 322.7181 173.6425  1.00272139 46868
BEIDOU-3S IGSO-1S (C31) 
1 40549U 15019A   25213.73357080 -.00000174  00000+0  00000+0 0  9995
2 40549  49.7996 299.3109 0040916 194.2872 175.7197  1.00268431 37871
BEIDOU-3S M2S (C58)     
1 40748U 15037A   25215.44652096 -.00000086  00000+0  00000+0 0  9993
2 40748  55.1501 312.9701 0010690 250.4520 109.4698  1.86229394 68206
BEIDOU-3S M1S (C57)     
1 40749U 15037B   25214.62031141 -.00000092  00000+0  00000+0 0  9992
2 40749  55.1476 312.9896 0002459  15.1204 344.9230  1.86254069 68173
BEIDOU-3S IGSO-2S (C56) 
1 40938U 15053A   25209.77077697 -.00000103  00000+0  00000+0 0  9999
2 40938  49.7210 262.6256 0060454 190.5534 225.0202  1.00258266 36118
BEIDOU-2 IGSO-6 (C13)   
1 41434U 16021A   25215.49313833 -.00000134  00000+0  00000+0 0  9992
2 41434  59.7799  41.2062 0054866 227.4756 317.0128  1.00279112 34283
BEIDOU-2 G7 (C03)       
1 41586U 16037A   25214.78278622 -.00000345  00000+0  00000+0 0  9998
2 41586   1.8749  69.3630 0009101  11.8842 262.6853  1.00269280 33586
BEIDOU-3 M1 (C19)       
1 43001U 17069A   25213.64497546 -.00000058  00000+0  00000+0 0  9991
2 43001  56.4076  73.6317 0008437 320.7740  39.2355  1.86231584 52653
BEIDOU-3 M2 (C20)       
1 43002U 17069B   25214.12003872 -.00000055  00000+0  00000+0 0  9998
2 43002  56.4073  73.6518 0007466 353.3069   6.7543  1.86231022 52656
BEIDOU-3 M7 (C27)       
1 43107U 18003A   25211.18009855 -.00000103  00000+0  00000+0 0  9997
2 43107  54.6119 313.5273 0003988  96.5660 263.5141  1.86232681 51350
BEIDOU-3 M8 (C28)       
1 43108U 18003B   25215.41951315 -.00000087  00000+0  00000+0 0  9996
2 43108  54.6014 313.3638 0003759 251.1877 108.8081  1.86231147 51443
BEIDOU-3 M4 (C22)       
1 43207U 18018A   25212.63927913 -.00000061  00000+0  00000+0 0  9992
2 43207  56.3656  73.7399 0006600  26.2584 333.8454  1.86231491 50770
BEIDOU-3 M3 (C21)       
1 43208U 18018B   25214.85366749 -.00000049  00000+0  00000+0 0  9999
2 43208  56.3669  73.6710 0006820 340.2926  19.7537  1.86231412 50814
BEIDOU-3 M9 (C29)       
1 43245U 18029A   25212.92290163 -.00000098  00000+0  00000+0 0  9998
2 43245  54.4827 311.1336 0001362 206.8923 153.1384  1.86233035 49931
BEIDOU-3 M10 (C30)      
1 43246U 18029B   25211.24557006 -.00000100  00000+0  00000+0 0  9999
2 43246  54.4814 311.2192 0002780  21.8808 338.1689  1.86229326 49886
BEIDOU-2 IGSO-7 (C16)   
1 43539U 18057A   25202.89613862 -.00000109  00000+0  00000+0 0  9998
2 43539  55.1702 165.9162 0089792 236.5057 329.0183  1.00246208 25814
BEIDOU-3 M5 (C23)       
1 43581U 18062A   25215.22913164  .00000078  00000+0  00000+0 0  9994
2 43581  54.0999 193.1138 0005439 287.7742  72.1539  1.86228894 47717
BEIDOU-3 M6 (C24)       
1 43582U 18062B   25215.09296312  .00000079  00000+0  00000+0 0  9990
2 43582  54.0994 193.1076 0005131   6.2998 353.6942  1.86229868 47717
BEIDOU-3 M12 (C26)      
1 43602U 18067A   25215.02928800  .00000077  00000+0  00000+0 0  9993
2 43602  54.1932 191.8288 0007529  25.0102 335.0123  1.86227805 47198
BEIDOU-3 M11 (C25)      
1 43603U 18067B   25215.16346090  .00000077  00000+0  00000+0 0  9994
2 43603  54.1903 191.7885 0004381   8.8371 351.1565  1.86227307 47229
BEIDOU-3 M13 (C32)      
1 43622U 18072A   25212.43685392 -.00000062  00000+0  00000+0 0  9994
2 43622  56.3382  73.2661 0005364 326.4909  33.5454  1.86231505 46681
BEIDOU-3 M14 (C33)      
1 43623U 18072B   25213.91319081 -.00000056  00000+0  00000+0 0  9991
2 43623  56.3415  73.2109 0004659   8.7484 351.3305  1.86231528 46704
BEIDOU-3 M16 (C35)      
1 43647U 18078A   25215.14644438 -.00000086  00000+0  00000+0 0  9990
2 43647  54.3767 311.1206 0006094  29.2942 330.7789  1.86232410 46249
BEIDOU-3 M15 (C34)      
1 43648U 18078B   25215.27565095 -.00000085  00000+0  00000+0 0  9995
2 43648  54.3727 311.1175 0002960  46.3255 313.7383  1.86232486 46262
BEIDOU-3 G1 (C59)       
1 43683U 18085A   25215.50232503 -.00000271  00000+0  00000+0 0  9990
2 43683   2.7801 106.7916 0004246   1.8507 164.4740  1.00267293 24867
BEIDOU-3 M17 (C36)      
1 43706U 18093A   25212.21004064  .00000076  00000+0  00000+0 0  9991
2 43706  54.1834 193.1849 0010166 288.4952  71.3768  1.86228527 45567
BEIDOU-3 M18 (C37)      
1 43707U 18093B   25212.07207974  .00000075  00000+0  00000+0 0  9990
2 43707  54.1841 193.1813 0008208 315.4999  44.4161  1.86230112 45553
BEIDOU-3 IGSO-1 (C38)   
1 44204U 19023A   25214.42720421 -.00000197  00000+0  00000+0 0  9991
2 44204  58.2447  40.9396 0024210 215.4854 327.4041  1.00284285  4011
BEIDOU-2 G8 (C01)       
1 44231U 19027A   25215.50327837 -.00000238  00000+0  00000+0 0  9995
2 44231   1.8070  75.2207 0003460 251.1928 311.6452  1.00273639 22889
BEIDOU-3 IGSO-2 (C39)   
1 44337U 19035A   25213.77525032 -.00000112  00000+0  00000+0 0  9996
2 44337  55.2163 161.6701 0035302 210.2136 336.1665  1.00257003 22467
BEIDOU-3 M24 (C46)      
1 44542U 19061A   25213.75413906  .00000083  00000+0  00000+0 0  9993
2 44542  54.4112 193.5003 0008401 352.7060   7.2688  1.86229413 39846
BEIDOU-3 M23 (C45)      
1 44543U 19061B   25214.95540703  .00000081  00000+0  00000+0 0  9991
2 44543  54.4096 193.4283 0005801 333.6798  24.4558  1.86229633 39867
BEIDOU-3 IGSO-3 (C40)   
1 44709U 19073A   25213.59791180 -.00000181  00000+0  00000+0 0  9996
2 44709  55.3464 284.3521 0045528 190.0626 169.9418  1.00284906 21232
BEIDOU-3 M22 (C44)      
1 44793U 19078A   25215.20678191 -.00000085  00000+0  00000+0 0  9993
2 44793  54.2235 311.0000 0004993  39.6304 320.4454  1.86232326 38731
BEIDOU-3 M21 (C43)      
1 44794U 19078B   25214.26747165 -.00000092  00000+0  00000+0 0  9995
2 44794  54.1977 311.0003 0002955  34.5982 325.4594  1.86227929 38710
BEIDOU-3 M19 (C41)      
1 44864U 19090A   25214.22573028 -.00000054  00000+0  00000+0 0  9996
2 44864  56.2739  73.3555 0016116 290.5684 235.9928  1.86231879 38292
BEIDOU-3 M20 (C42)      
1 44865U 19090B   25214.13999234 -.00000055  00000+0  00000+0 0  9999
2 44865  56.2755  73.3924 0013938 306.0031 252.7072  1.86231795 38271
BEIDOU-3 G2 (C60)       
1 45344U 20017A   25215.49053833 -.00000133  00000+0  00000+0 0  9996
2 45344   2.9535  41.3814 0001798  94.2676  73.2850  1.00273104 20089
BEIDOU-3 G3 (C61)       
1 45807U 20040A   25214.42590420 -.00000346  00000+0  00000+0 0  9992
2 45807   1.6678  64.9831 0004536 344.0072 166.1619  1.00272218 18870
BEIDOU-3 G4 (C62)       
1 56564U 23066A   25214.93530028 -.00000100  00000+0  00000+0 0  9997
2 56564   1.1157 294.1034 0006644 196.4686 317.8292  1.00273939  8213
BEIDOU-3 M28 (C50)      
1 58654U 23207A   25214.88375288 -.00000051  00000+0  00000+0 0  9990
2 58654  55.4642  73.0640 0001590   3.3650 356.7079  1.86230057 10918
BEIDOU-3 M26 (C48)      
1 58655U 23207B   25213.60862073 -.00000060  00000+0  00000+0 0  9993
2 58655  55.4649  73.0933 0001288 297.8596  62.1970  1.86231773 10873
BEIDOU-3 M25 (C47)      
1 61186U 24168B   25215.04437694 -.00000090  00000+0  00000+0 0  9993
2 61186  54.7544 313.2831 0003957 280.9283  79.1851  1.86230369  5857
BEIDOU-3 M27 (C49)      
1 61187U 24168C   25214.84465810 -.00000091  00000+0  00000+0 0  9993
2 61187  54.7499 313.2740 0000622 359.9790   1.1293  1.86230409  5885
